[{"OBJECT_NAME":"SITRO-AIS 10 (BURDAEV)","OBJECT_ID":"2023-091AK","EPOCH":"2026-03-09T22:45:30.960864","MEAN_MOTION":15.34764555,"ECCENTRICITY":0.00081281,"INCLINATION":97.5182,"RA_OF_ASC_NODE":137.3607,"ARG_OF_PERICENTER":74.3981,"MEAN_ANOMALY":285.8158,"EPHEMERIS_TYPE":0,"CLASSIFICATION_TYPE":"U","NORAD_CAT_ID":57199,"ELEMENT_SET_NO":999,"REV_AT_EPOCH":14952,"BSTAR":0.00077206799,"MEAN_MOTION_DOT":0.00026021,"MEAN_MOTION_DDOT":0},{"OBJECT_NAME":"BANDWAGON-2 OBJECT AC","OBJECT_ID":"2024-247AC","EPOCH":"2026-03-09T11:57:27.837504","MEAN_MOTION":15.35059671,"ECCENTRICITY":0.0004253,"INCLINATION":45.0036,"RA_OF_ASC_NODE":108.1066,"ARG_OF_PERICENTER":352.6172,"MEAN_ANOMALY":7.4651,"EPHEMERIS_TYPE":0,"CLASSIFICATION_TYPE":"U","NORAD_CAT_ID":62403,"ELEMENT_SET_NO":999,"REV_AT_EPOCH":6782,"BSTAR":0.00062485362,"MEAN_MOTION_DOT":0.00021432,"MEAN_MOTION_DDOT":0}]
